QIANFAN-33              
1 61566U 24185Q   26022.45744278  .00000589  00000+0  41579-3 0  9997
2 61566  88.9762  74.2705 0007052 181.0048 179.1116 13.96587943 74841
QIANFAN-34              
1 61567U 24185R   26022.46992654  .00000677  00000+0  43241-3 0  9998
2 61567  88.9737  73.7787 0005858 179.3695 180.7494 14.02345224 75062
QIANFAN-35              
1 61568U 24185S   26022.47966407  .00001336  00000+0  53244-3 0  9994
2 61568  88.9764  72.0987 0008089 138.4487 221.7323 14.28046880 75994
QIANFAN-36              
1 61569U 24185T   26022.48607166  .00000210  00000+0  28416-3 0  9993
2 61569  88.9748  76.8028 0004027 286.6935  73.3776 13.55601331 73445
QIANFAN-37              
1 62238U 24232B   26022.43160916  .00000048  00000+0  55772-4 0  9997
2 62238  88.9994  37.2164 0001840  71.4353 288.6998 13.50982910104664
QIANFAN-38              
1 62239U 24232C   26022.45634324  .00000040  00000+0  43844-4 0  9998
2 62239  89.0001  37.1324 0016486  79.3719 280.9287 13.50980875104729
QIANFAN-39              
1 62240U 24232D   26022.49074058  .00000246  00000+0  97949-4 0  9999
2 62240  88.9998  32.6426 0014322 310.8374  49.1577 14.25414557107197
QIANFAN-40              
1 62241U 24232E   26022.48926265  .00000039  00000+0  41525-4 0  9994
2 62241  89.0029  36.7249 0015555  86.3595 273.9335 13.50981053105095
